{
  "type": "FeatureCollection",
  "features": [
    {
      "type": "Feature",
      "properties": {
        "norad_id": 34022,
        "name": "COSMOS 2251 DEB",
        "group": "cosmos-2251-debris",
        "lat": 59.11729340709388,
        "lon": 65.83054357177294,
        "alt_km": 767.6957156396466,
        "timestamp": "2025-12-10T18:57:00.458552+00:00",
        "meta_object_name": "COSMOS 2251 DEB",
        "meta_object_id": "1993-036HH",
        "meta_epoch": "2025-12-10T12:17:17.252736",
        "meta_mean_motion": 14.38958155,
        "meta_eccentricity": 0.0022646,
        "meta_inclination": 74.0542,
        "meta_ra_of_asc_node": 274.8995,
        "meta_arg_of_pericenter": 340.241,
        "meta_mean_anomaly": 138.961,
        "meta_ephemeris_type": 0,
        "meta_classification_type": "U",
        "meta_norad_cat_id": 34022,
        "meta_element_set_no": 999,
        "meta_rev_at_epoch": 88163,
        "meta_bstar": 0.00040906,
        "meta_mean_motion_dot": 1.239e-05,
        "meta_mean_motion_ddot": 0,
        "tle_line1": "1 34022U 93036HH  25344.51200524  .00001239  00000+0  40906-3 0  9995",
        "tle_line2": "2 34022  74.0542 274.8995 0022646 340.2410 138.9610 14.38958155881636"
      },
      "geometry": {
        "type": "Point",
        "coordinates": [
          65.83054357177294,
          59.11729340709388
        ]
      }
    },
    {
      "type": "Feature",
      "properties": {
        "norad_id": 34023,
        "name": "COSMOS 2251 DEB",
        "group": "cosmos-2251-debris",
        "lat": 23.766471646626417,
        "lon": -97.4012748955368,
        "alt_km": 744.8218296824907,
        "timestamp": "2025-12-10T18:57:00.458562+00:00",
        "meta_object_name": "COSMOS 2251 DEB",
        "meta_object_id": "1993-036HJ",
        "meta_epoch": "2025-12-10T11:03:26.177760",
        "meta_mean_motion": 14.40553452,
        "meta_eccentricity": 0.0018393,
        "meta_inclination": 74.0252,
        "meta_ra_of_asc_node": 255.9604,
        "meta_arg_of_pericenter": 352.0204,
        "meta_mean_anomaly": 127.9245,
        "meta_ephemeris_type": 0,
        "meta_classification_type": "U",
        "meta_norad_cat_id": 34023,
        "meta_element_set_no": 999,
        "meta_rev_at_epoch": 88181,
        "meta_bstar": 0.00055507,
        "meta_mean_motion_dot": 1.745e-05,
        "meta_mean_motion_ddot": 0,
        "tle_line1": "1 34023U 93036HJ  25344.46071965  .00001745  00000+0  55507-3 0  9990",
        "tle_line2": "2 34023  74.0252 255.9604 0018393 352.0204 127.9245 14.40553452881814"
      },
      "geometry": {
        "type": "Point",
        "coordinates": [
          -97.4012748955368,
          23.766471646626417
        ]
      }
    },
    {
      "type": "Feature",
      "properties": {
        "norad_id": 34024,
        "name": "COSMOS 2251 DEB",
        "group": "cosmos-2251-debris",
        "lat": 65.10356050046398,
        "lon": -2.3814633951337107,
        "alt_km": 759.5269983057606,
        "timestamp": "2025-12-10T18:57:00.458572+00:00",
        "meta_object_name": "COSMOS 2251 DEB",
        "meta_object_id": "1993-036HK",
        "meta_epoch": "2025-12-10T09:07:31.673280",
        "meta_mean_motion": 14.35392187,
        "meta_eccentricity": 0.0020925,
        "meta_inclination": 74.0463,
        "meta_ra_of_asc_node": 320.3181,
        "meta_arg_of_pericenter": 11.6238,
        "meta_mean_anomaly": 104.3569,
        "meta_ephemeris_type": 0,
        "meta_classification_type": "U",
        "meta_norad_cat_id": 34024,
        "meta_element_set_no": 999,
        "meta_rev_at_epoch": 87990,
        "meta_bstar": 0.00032563,
        "meta_mean_motion_dot": 9.11e-06,
        "meta_mean_motion_ddot": 0,
        "tle_line1": "1 34024U 93036HK  25344.38022770  .00000911  00000+0  32563-3 0  9993",
        "tle_line2": "2 34024  74.0463 320.3181 0020925  11.6238 104.3569 14.35392187879900"
      },
      "geometry": {
        "type": "Point",
        "coordinates": [
          -2.3814633951337107,
          65.10356050046398
        ]
      }
    },
    {
      "type": "Feature",
      "properties": {
        "norad_id": 34026,
        "name": "COSMOS 2251 DEB",
        "group": "cosmos-2251-debris",
        "lat": 73.08847870662058,
        "lon": 53.88666466603244,
        "alt_km": 1153.9920617044027,
        "timestamp": "2025-12-10T18:57:00.458581+00:00",
        "meta_object_name": "COSMOS 2251 DEB",
        "meta_object_id": "1993-036HM",
        "meta_epoch": "2025-12-10T10:20:56.035968",
        "meta_mean_motion": 13.65303508,
        "meta_eccentricity": 0.0350744,
        "meta_inclination": 73.7681,
        "meta_ra_of_asc_node": 341.1245,
        "meta_arg_of_pericenter": 211.4861,
        "meta_mean_anomaly": 276.2185,
        "meta_ephemeris_type": 0,
        "meta_classification_type": "U",
        "meta_norad_cat_id": 34026,
        "meta_element_set_no": 999,
        "meta_rev_at_epoch": 83500,
        "meta_bstar": 0.0011635,
        "meta_mean_motion_dot": 1.416e-05,
        "meta_mean_motion_ddot": 0,
        "tle_line1": "1 34026U 93036HM  25344.43120412  .00001416  00000+0  11635-2 0  9990",
        "tle_line2": "2 34026  73.7681 341.1245 0350744 211.4861 276.2185 13.65303508835006"
      },
      "geometry": {
        "type": "Point",
        "coordinates": [
          53.88666466603244,
          73.08847870662058
        ]
      }
    },
    {
      "type": "Feature",
      "properties": {
        "norad_id": 34028,
        "name": "COSMOS 2251 DEB",
        "group": "cosmos-2251-debris",
        "lat": 49.25312518660422,
        "lon": 9.847945637339036,
        "alt_km": 1059.255807053969,
        "timestamp": "2025-12-10T18:57:00.458592+00:00",
        "meta_object_name": "COSMOS 2251 DEB",
        "meta_object_id": "1993-036HP",
        "meta_epoch": "2025-12-10T12:12:00.779904",
        "meta_mean_motion": 13.20620439,
        "meta_eccentricity": 0.0543777,
        "meta_inclination": 73.8833,
        "meta_ra_of_asc_node": 350.6714,
        "meta_arg_of_pericenter": 128.8985,
        "meta_mean_anomaly": 32.5831,
        "meta_ephemeris_type": 0,
        "meta_classification_type": "U",
        "meta_norad_cat_id": 34028,
        "meta_element_set_no": 999,
        "meta_rev_at_epoch": 80978,
        "meta_bstar": 0.00048739,
        "meta_mean_motion_dot": 4.14e-06,
        "meta_mean_motion_ddot": 0,
        "tle_line1": "1 34028U 93036HP  25344.50834236  .00000414  00000+0  48739-3 0  9999",
        "tle_line2": "2 34028  73.8833 350.6714 0543777 128.8985  32.5831 13.20620439809785"
      },
      "geometry": {
        "type": "Point",
        "coordinates": [
          9.847945637339036,
          49.25312518660422
        ]
      }
    },
    {
      "type": "Feature",
      "properties": {
        "norad_id": 34031,
        "name": "COSMOS 2251 DEB",
        "group": "cosmos-2251-debris",
        "lat": 73.74281596779448,
        "lon": -141.10344682213065,
        "alt_km": 703.0364332547142,
        "timestamp": "2025-12-10T18:57:00.458602+00:00",
        "meta_object_name": "COSMOS 2251 DEB",
        "meta_object_id": "1993-036HS",
        "meta_epoch": "2025-12-10T12:14:01.679424",
        "meta_mean_motion": 14.59640746,
        "meta_eccentricity": 0.0022989,
        "meta_inclination": 74.0128,
        "meta_ra_of_asc_node": 139.9668,
        "meta_arg_of_pericenter": 260.3651,
        "meta_mean_anomaly": 156.8264,
        "meta_ephemeris_type": 0,
        "meta_classification_type": "U",
        "meta_norad_cat_id": 34031,
        "meta_element_set_no": 999,
        "meta_rev_at_epoch": 88533,
        "meta_bstar": 0.0020476,
        "meta_mean_motion_dot": 9.77e-05,
        "meta_mean_motion_ddot": 0,
        "tle_line1": "1 34031U 93036HS  25344.50974166  .00009770  00000+0  20476-2 0  9991",
        "tle_line2": "2 34031  74.0128 139.9668 0022989 260.3651 156.8264 14.59640746885335"
      },
      "geometry": {
        "type": "Point",
        "coordinates": [
          -141.10344682213065,
          73.74281596779448
        ]
      }
    },
    {
      "type": "Feature",
      "properties": {
        "norad_id": 34035,
        "name": "COSMOS 2251 DEB",
        "group": "cosmos-2251-debris",
        "lat": -52.8126169995444,
        "lon": -29.313171451478684,
        "alt_km": 705.9356354412357,
        "timestamp": "2025-12-10T18:57:00.458613+00:00",
        "meta_object_name": "COSMOS 2251 DEB",
        "meta_object_id": "1993-036HW",
        "meta_epoch": "2025-12-10T04:54:43.628832",
        "meta_mean_motion": 14.51887587,
        "meta_eccentricity": 0.0044513,
        "meta_inclination": 74.0661,
        "meta_ra_of_asc_node": 353.9061,
        "meta_arg_of_pericenter": 355.9554,
        "meta_mean_anomaly": 132.5569,
        "meta_ephemeris_type": 0,
        "meta_classification_type": "U",
        "meta_norad_cat_id": 34035,
        "meta_element_set_no": 999,
        "meta_rev_at_epoch": 87929,
        "meta_bstar": 0.0023461,
        "meta_mean_motion_dot": 9.563e-05,
        "meta_mean_motion_ddot": 0,
        "tle_line1": "1 34035U 93036HW  25344.20467163  .00009563  00000+0  23461-2 0  9993",
        "tle_line2": "2 34035  74.0661 353.9061 0044513 355.9554 132.5569 14.51887587879291"
      },
      "geometry": {
        "type": "Point",
        "coordinates": [
          -29.313171451478684,
          -52.8126169995444
        ]
      }
    }
  ]
}